CCSDS_OMM_VERS = 2.0
CREATION_DATE  = 
ORIGINATOR     = 

OBJECT_NAME    = STARLINK-35797
OBJECT_ID      = 2025-254S
CENTER_NAME    = EARTH
REF_FRAME      = TEME
TIME_SYSTEM    = UTC
MEAN_ELEMENT_THEORY = SGP/SGP4

EPOCH          = 2025-12-06T08:00:01.999872
MEAN_MOTION    = 15.49975793
ECCENTRICITY   = .00009333
INCLINATION    = 53.1603
RA_OF_ASC_NODE = 307.1711
ARG_OF_PERICENTER = 55.0382
MEAN_ANOMALY   = 70.4214

EPHEMERIS_TYPE = 0
CLASSIFICATION_TYPE = U
NORAD_CAT_ID   = 66364
ELEMENT_SET_NO = 999
REV_AT_EPOCH   = 589
BSTAR          = -.18661313E-1
MEAN_MOTION_DOT = -.97263E-2
MEAN_MOTION_DDOT = 0

CCSDS_OMM_VERS = 2.0
CREATION_DATE  = 
ORIGINATOR     = 

OBJECT_NAME    = STARLINK-35827
OBJECT_ID      = 2025-254T
CENTER_NAME    = EARTH
REF_FRAME      = TEME
TIME_SYSTEM    = UTC
MEAN_ELEMENT_THEORY = SGP/SGP4

EPOCH          = 2025-12-06T08:00:01.999872
MEAN_MOTION    = 15.49975455
ECCENTRICITY   = .00009928
INCLINATION    = 53.1604
RA_OF_ASC_NODE = 307.1640
ARG_OF_PERICENTER = 55.8094
MEAN_ANOMALY   = 73.4827

EPHEMERIS_TYPE = 0
CLASSIFICATION_TYPE = U
NORAD_CAT_ID   = 66365
ELEMENT_SET_NO = 999
REV_AT_EPOCH   = 586
BSTAR          = -.18628609E-1
MEAN_MOTION_DOT = -.97107E-2
MEAN_MOTION_DDOT = 0

CCSDS_OMM_VERS = 2.0
CREATION_DATE  = 
ORIGINATOR     = 

OBJECT_NAME    = STARLINK-35845
OBJECT_ID      = 2025-254U
CENTER_NAME    = EARTH
REF_FRAME      = TEME
TIME_SYSTEM    = UTC
MEAN_ELEMENT_THEORY = SGP/SGP4

EPOCH          = 2025-12-06T08:00:01.999872
MEAN_MOTION    = 15.49975170
ECCENTRICITY   = .00009787
INCLINATION    = 53.1604
RA_OF_ASC_NODE = 307.1672
ARG_OF_PERICENTER = 63.3655
MEAN_ANOMALY   = 64.0105

EPHEMERIS_TYPE = 0
CLASSIFICATION_TYPE = U
NORAD_CAT_ID   = 66366
ELEMENT_SET_NO = 999
REV_AT_EPOCH   = 589
BSTAR          = -.18638683E-1
MEAN_MOTION_DOT = -.971539E-2
MEAN_MOTION_DDOT = 0

CCSDS_OMM_VERS = 2.0
CREATION_DATE  = 
ORIGINATOR     = 

OBJECT_NAME    = STARLINK-35846
OBJECT_ID      = 2025-254V
CENTER_NAME    = EARTH
REF_FRAME      = TEME
TIME_SYSTEM    = UTC
MEAN_ELEMENT_THEORY = SGP/SGP4

EPOCH          = 2025-12-06T08:00:01.999872
MEAN_MOTION    = 15.49990237
ECCENTRICITY   = .00013389
INCLINATION    = 53.1602
RA_OF_ASC_NODE = 307.1596
ARG_OF_PERICENTER = 78.8375
MEAN_ANOMALY   = 52.3671

EPHEMERIS_TYPE = 0
CLASSIFICATION_TYPE = U
NORAD_CAT_ID   = 66367
ELEMENT_SET_NO = 999
REV_AT_EPOCH   = 584
BSTAR          = -.18847511E-1
MEAN_MOTION_DOT = -.982074E-2
MEAN_MOTION_DDOT = 0

CCSDS_OMM_VERS = 2.0
CREATION_DATE  = 
ORIGINATOR     = 

OBJECT_NAME    = STARLINK-34861
OBJECT_ID      = 2025-254W
CENTER_NAME    = EARTH
REF_FRAME      = TEME
TIME_SYSTEM    = UTC
MEAN_ELEMENT_THEORY = SGP/SGP4

EPOCH          = 2025-12-06T04:56:07.751328
MEAN_MOTION    = 15.74288342
ECCENTRICITY   = .00013867
INCLINATION    = 53.1581
RA_OF_ASC_NODE = 307.3171
ARG_OF_PERICENTER = 122.5028
MEAN_ANOMALY   = 237.6126

EPHEMERIS_TYPE = 0
CLASSIFICATION_TYPE = U
NORAD_CAT_ID   = 66368
ELEMENT_SET_NO = 999
REV_AT_EPOCH   = 465
BSTAR          = .19567965E-2
MEAN_MOTION_DOT = .297576E-2
MEAN_MOTION_DDOT = 0

CCSDS_OMM_VERS = 2.0
CREATION_DATE  = 
ORIGINATOR     = 

OBJECT_NAME    = STARLINK-35795
OBJECT_ID      = 2025-254X
CENTER_NAME    = EARTH
REF_FRAME      = TEME
TIME_SYSTEM    = UTC
MEAN_ELEMENT_THEORY = SGP/SGP4

EPOCH          = 2025-12-04T02:39:36.815328
MEAN_MOTION    = 15.74349696
ECCENTRICITY   = .00030446
INCLINATION    = 53.1567
RA_OF_ASC_NODE = 317.7168
ARG_OF_PERICENTER = 147.1731
MEAN_ANOMALY   = 212.9479

EPHEMERIS_TYPE = 0
CLASSIFICATION_TYPE = U
NORAD_CAT_ID   = 66369
ELEMENT_SET_NO = 999
REV_AT_EPOCH   = 432
BSTAR          = .21458163E-2
MEAN_MOTION_DOT = .328479E-2
MEAN_MOTION_DDOT = 0

CCSDS_OMM_VERS = 2.0
CREATION_DATE  = 
ORIGINATOR     = 

OBJECT_NAME    = STARLINK-35824
OBJECT_ID      = 2025-254Y
CENTER_NAME    = EARTH
REF_FRAME      = TEME
TIME_SYSTEM    = UTC
MEAN_ELEMENT_THEORY = SGP/SGP4

EPOCH          = 2025-12-05T22:49:39.151776
MEAN_MOTION    = 15.75006861
ECCENTRICITY   = .00012624
INCLINATION    = 53.1578
RA_OF_ASC_NODE = 308.5735
ARG_OF_PERICENTER = 61.4125
MEAN_ANOMALY   = 298.7022

EPHEMERIS_TYPE = 0
CLASSIFICATION_TYPE = U
NORAD_CAT_ID   = 66370
ELEMENT_SET_NO = 999
REV_AT_EPOCH   = 461
BSTAR          = .30357568E-2
MEAN_MOTION_DOT = .487633E-2
MEAN_MOTION_DDOT = 0

CCSDS_OMM_VERS = 2.0
CREATION_DATE  = 
ORIGINATOR     = 

OBJECT_NAME    = STARLINK-35804
OBJECT_ID      = 2025-254Z
CENTER_NAME    = EARTH
REF_FRAME      = TEME
TIME_SYSTEM    = UTC
MEAN_ELEMENT_THEORY = SGP/SGP4

EPOCH          = 2025-12-06T04:54:40.234176
MEAN_MOTION    = 15.74301804
ECCENTRICITY   = .00013026
INCLINATION    = 53.1573
RA_OF_ASC_NODE = 307.3099
ARG_OF_PERICENTER = 88.6348
MEAN_ANOMALY   = 271.4821

EPHEMERIS_TYPE = 0
CLASSIFICATION_TYPE = U
NORAD_CAT_ID   = 66371
ELEMENT_SET_NO = 999
REV_AT_EPOCH   = 465
BSTAR          = .24745482E-2
MEAN_MOTION_DOT = .380477E-2
MEAN_MOTION_DDOT = 0

CCSDS_OMM_VERS = 2.0
CREATION_DATE  = 
ORIGINATOR     = 

OBJECT_NAME    = STARLINK-35821
OBJECT_ID      = 2025-254AA
CENTER_NAME    = EARTH
REF_FRAME      = TEME
TIME_SYSTEM    = UTC
MEAN_ELEMENT_THEORY = SGP/SGP4

EPOCH          = 2025-12-04T10:15:15.064416
MEAN_MOTION    = 15.74415610
ECCENTRICITY   = .0001567
INCLINATION    = 53.1569
RA_OF_ASC_NODE = 316.1358
ARG_OF_PERICENTER = 64.6576
MEAN_ANOMALY   = 295.4606

EPHEMERIS_TYPE = 0
CLASSIFICATION_TYPE = U
NORAD_CAT_ID   = 66372
ELEMENT_SET_NO = 999
REV_AT_EPOCH   = 437
BSTAR          = .30875E-2
MEAN_MOTION_DOT = .483155E-2
MEAN_MOTION_DDOT = 0

CCSDS_OMM_VERS = 2.0
CREATION_DATE  = 
ORIGINATOR     = 

OBJECT_NAME    = STARLINK-35809
OBJECT_ID      = 2025-254AB
CENTER_NAME    = EARTH
REF_FRAME      = TEME
TIME_SYSTEM    = UTC
MEAN_ELEMENT_THEORY = SGP/SGP4

EPOCH          = 2025-12-06T04:54:11.210688
MEAN_MOTION    = 15.74264185
ECCENTRICITY   = .00012118
INCLINATION    = 53.1574
RA_OF_ASC_NODE = 307.3079
ARG_OF_PERICENTER = 75.1212
MEAN_ANOMALY   = 284.9942

EPHEMERIS_TYPE = 0
CLASSIFICATION_TYPE = U
NORAD_CAT_ID   = 66373
ELEMENT_SET_NO = 999
REV_AT_EPOCH   = 465
BSTAR          = .20324191E-2
MEAN_MOTION_DOT = .309212E-2
MEAN_MOTION_DDOT = 0

CCSDS_OMM_VERS = 2.0
CREATION_DATE  = 
ORIGINATOR     = 

OBJECT_NAME    = STARLINK-35831
OBJECT_ID      = 2025-254AC
CENTER_NAME    = EARTH
REF_FRAME      = TEME
TIME_SYSTEM    = UTC
MEAN_ELEMENT_THEORY = SGP/SGP4

EPOCH          = 2025-12-05T15:10:54.606144
MEAN_MOTION    = 15.74325730
ECCENTRICITY   = .00041826
INCLINATION    = 53.1572
RA_OF_ASC_NODE = 310.1414
ARG_OF_PERICENTER = 66.4364
MEAN_ANOMALY   = 293.7095

EPHEMERIS_TYPE = 0
CLASSIFICATION_TYPE = U
NORAD_CAT_ID   = 66374
ELEMENT_SET_NO = 999
REV_AT_EPOCH   = 456
BSTAR          = .26107257E-2
MEAN_MOTION_DOT = .402992E-2
MEAN_MOTION_DDOT = 0

CCSDS_OMM_VERS = 2.0
CREATION_DATE  = 
ORIGINATOR     = 

OBJECT_NAME    = STARLINK-35826
OBJECT_ID      = 2025-254AD
CENTER_NAME    = EARTH
REF_FRAME      = TEME
TIME_SYSTEM    = UTC
MEAN_ELEMENT_THEORY = SGP/SGP4

EPOCH          = 2025-12-06T04:53:12.723072
MEAN_MOTION    = 15.74307496
ECCENTRICITY   = .00018055
INCLINATION    = 53.1571
RA_OF_ASC_NODE = 307.3032
ARG_OF_PERICENTER = 100.1258
MEAN_ANOMALY   = 259.9966

EPHEMERIS_TYPE = 0
CLASSIFICATION_TYPE = U
NORAD_CAT_ID   = 66375
ELEMENT_SET_NO = 999
REV_AT_EPOCH   = 465
BSTAR          = .31326618E-2
MEAN_MOTION_DOT = .488243E-2
MEAN_MOTION_DDOT = 0

CCSDS_OMM_VERS = 2.0
CREATION_DATE  = 
ORIGINATOR     = 

OBJECT_NAME    = SHIYAN-32 01
OBJECT_ID      = 2025-255A
CENTER_NAME    = EARTH
REF_FRAME      = TEME
TIME_SYSTEM    = UTC
MEAN_ELEMENT_THEORY = SGP/SGP4

EPOCH          = 2025-12-06T05:02:06.106560
MEAN_MOTION    = 15.42462388
ECCENTRICITY   = .0013516
INCLINATION    = 52.9946
RA_OF_ASC_NODE = 209.1235
ARG_OF_PERICENTER = 21.8126
MEAN_ANOMALY   = 338.3450

EPHEMERIS_TYPE = 0
CLASSIFICATION_TYPE = U
NORAD_CAT_ID   = 66376
ELEMENT_SET_NO = 999
REV_AT_EPOCH   = 434
BSTAR          = .65851055E-3
MEAN_MOTION_DOT = .28731E-3
MEAN_MOTION_DDOT = 0

CCSDS_OMM_VERS = 2.0
CREATION_DATE  = 
ORIGINATOR     = 

OBJECT_NAME    = CZ-11 DEB
OBJECT_ID      = 2025-255B
CENTER_NAME    = EARTH
REF_FRAME      = TEME
TIME_SYSTEM    = UTC
MEAN_ELEMENT_THEORY = SGP/SGP4

EPOCH          = 2025-12-06T04:41:30.073344
MEAN_MOTION    = 15.43879412
ECCENTRICITY   = .00137634
INCLINATION    = 52.9945
RA_OF_ASC_NODE = 209.0333
ARG_OF_PERICENTER = 19.2630
MEAN_ANOMALY   = 340.8892

EPHEMERIS_TYPE = 0
CLASSIFICATION_TYPE = U
NORAD_CAT_ID   = 66377
ELEMENT_SET_NO = 999
REV_AT_EPOCH   = 420
BSTAR          = .12417391E-2
MEAN_MOTION_DOT = .57454E-3
MEAN_MOTION_DDOT = 0

CCSDS_OMM_VERS = 2.0
CREATION_DATE  = 
ORIGINATOR     = 

OBJECT_NAME    = SHIYAN-32 02
OBJECT_ID      = 2025-255C
CENTER_NAME    = EARTH
REF_FRAME      = TEME
TIME_SYSTEM    = UTC
MEAN_ELEMENT_THEORY = SGP/SGP4

EPOCH          = 2025-12-06T06:05:46.396608
MEAN_MOTION    = 15.44523163
ECCENTRICITY   = .00121192
INCLINATION    = 52.9927
RA_OF_ASC_NODE = 208.6854
ARG_OF_PERICENTER = 15.2604
MEAN_ANOMALY   = 344.8764

EPHEMERIS_TYPE = 0
CLASSIFICATION_TYPE = U
NORAD_CAT_ID   = 66378
ELEMENT_SET_NO = 999
REV_AT_EPOCH   = 421
BSTAR          = .15940736E-2
MEAN_MOTION_DOT = .75636E-3
MEAN_MOTION_DDOT = 0

